[{"OBJECT_NAME":"GAOFEN-1 02","OBJECT_ID":"2018-031A","EPOCH":"2026-04-05T05:47:52.594944","MEAN_MOTION":14.76453882,"ECCENTRICITY":0.00020053,"INCLINATION":98.0591,"RA_OF_ASC_NODE":157.9487,"ARG_OF_PERICENTER":221.7336,"MEAN_ANOMALY":138.3721,"EPHEMERIS_TYPE":0,"CLASSIFICATION_TYPE":"U","NORAD_CAT_ID":43259,"ELEMENT_SET_NO":999,"REV_AT_EPOCH":43193,"BSTAR":-4.0093875e-5,"MEAN_MOTION_DOT":-3.31e-6,"MEAN_MOTION_DDOT":0},{"OBJECT_NAME":"GAOFEN-1 03","OBJECT_ID":"2018-031B","EPOCH":"2026-04-05T06:53:59.525664","MEAN_MOTION":14.76474673,"ECCENTRICITY":0.00016004,"INCLINATION":98.058,"RA_OF_ASC_NODE":157.8608,"ARG_OF_PERICENTER":328.1706,"MEAN_ANOMALY":31.9407,"EPHEMERIS_TYPE":0,"CLASSIFICATION_TYPE":"U","NORAD_CAT_ID":43260,"ELEMENT_SET_NO":999,"REV_AT_EPOCH":43193,"BSTAR":0.00018267041,"MEAN_MOTION_DOT":1.22e-5,"MEAN_MOTION_DDOT":0},{"OBJECT_NAME":"GAOFEN-1 04","OBJECT_ID":"2018-031D","EPOCH":"2026-04-05T06:19:02.496576","MEAN_MOTION":14.76440083,"ECCENTRICITY":0.00012255,"INCLINATION":98.0592,"RA_OF_ASC_NODE":158.0185,"ARG_OF_PERICENTER":57.7072,"MEAN_ANOMALY":302.4257,"EPHEMERIS_TYPE":0,"CLASSIFICATION_TYPE":"U","NORAD_CAT_ID":43262,"ELEMENT_SET_NO":999,"REV_AT_EPOCH":43192,"BSTAR":0.00026174447,"MEAN_MOTION_DOT":1.769e-5,"MEAN_MOTION_DDOT":0},{"OBJECT_NAME":"SENTINEL-3B","OBJECT_ID":"2018-039A","EPOCH":"2026-04-05T04:25:38.499168","MEAN_MOTION":14.26736433,"ECCENTRICITY":0.00015467,"INCLINATION":98.6296,"RA_OF_ASC_NODE":163.7478,"ARG_OF_PERICENTER":111.7717,"MEAN_ANOMALY":248.3628,"EPHEMERIS_TYPE":0,"CLASSIFICATION_TYPE":"U","NORAD_CAT_ID":43437,"ELEMENT_SET_NO":999,"REV_AT_EPOCH":41371,"BSTAR":9.7750541e-5,"MEAN_MOTION_DOT":1.93e-6,"MEAN_MOTION_DDOT":0},{"OBJECT_NAME":"GAOFEN-5 01","OBJECT_ID":"2018-043A","EPOCH":"2026-04-05T04:06:09.157248","MEAN_MOTION":14.60553255,"ECCENTRICITY":0.00011173,"INCLINATION":98.4514,"RA_OF_ASC_NODE":65.2528,"ARG_OF_PERICENTER":351.0603,"MEAN_ANOMALY":9.0576,"EPHEMERIS_TYPE":0,"CLASSIFICATION_TYPE":"U","NORAD_CAT_ID":43461,"ELEMENT_SET_NO":999,"REV_AT_EPOCH":42103,"BSTAR":0.00014067637,"MEAN_MOTION_DOT":6.34e-6,"MEAN_MOTION_DDOT":0},{"OBJECT_NAME":"GAOFEN-6","OBJECT_ID":"2018-048A","EPOCH":"2026-04-05T06:59:55.976640","MEAN_MOTION":14.76649322,"ECCENTRICITY":0.00134293,"INCLINATION":97.782,"RA_OF_ASC_NODE":160.6262,"ARG_OF_PERICENTER":57.2853,"MEAN_ANOMALY":302.965,"EPHEMERIS_TYPE":0,"CLASSIFICATION_TYPE":"U","NORAD_CAT_ID":43484,"ELEMENT_SET_NO":999,"REV_AT_EPOCH":42263,"BSTAR":0.0002737513,"MEAN_MOTION_DOT":1.867e-5,"MEAN_MOTION_DDOT":0},{"OBJECT_NAME":"GAOFEN-11 01","OBJECT_ID":"2018-063A","EPOCH":"2026-04-05T06:59:13.811712","MEAN_MOTION":15.53226205,"ECCENTRICITY":0.00028425,"INCLINATION":97.1353,"RA_OF_ASC_NODE":162.4667,"ARG_OF_PERICENTER":223.4762,"MEAN_ANOMALY":136.6268,"EPHEMERIS_TYPE":0,"CLASSIFICATION_TYPE":"U","NORAD_CAT_ID":43585,"ELEMENT_SET_NO":999,"REV_AT_EPOCH":42902,"BSTAR":0.00039443309,"MEAN_MOTION_DOT":0.00024743,"MEAN_MOTION_DDOT":0},{"OBJECT_NAME":"ICESAT-2","OBJECT_ID":"2018-070A","EPOCH":"2026-04-05T05:04:22.612512","MEAN_MOTION":15.28258663,"ECCENTRICITY":0.00042012,"INCLINATION":91.9999,"RA_OF_ASC_NODE":271.3046,"ARG_OF_PERICENTER":72.4151,"MEAN_ANOMALY":287.7557,"EPHEMERIS_TYPE":0,"CLASSIFICATION_TYPE":"U","NORAD_CAT_ID":43613,"ELEMENT_SET_NO":999,"REV_AT_EPOCH":42131,"BSTAR":0.0001616818,"MEAN_MOTION_DOT":4.452e-5,"MEAN_MOTION_DDOT":0},{"OBJECT_NAME":"HYSIS","OBJECT_ID":"2018-096A","EPOCH":"2026-04-05T06:18:35.384256","MEAN_MOTION":14.7863192,"ECCENTRICITY":0.00014693,"INCLINATION":97.9887,"RA_OF_ASC_NODE":162.5638,"ARG_OF_PERICENTER":66.2622,"MEAN_ANOMALY":293.8743,"EPHEMERIS_TYPE":0,"CLASSIFICATION_TYPE":"U","NORAD_CAT_ID":43719,"ELEMENT_SET_NO":999,"REV_AT_EPOCH":39664,"BSTAR":0.00036411362,"MEAN_MOTION_DOT":2.615e-5,"MEAN_MOTION_DDOT":0},{"OBJECT_NAME":"KAZSTSAT","OBJECT_ID":"2018-099AB","EPOCH":"2026-04-05T00:59:46.438944","MEAN_MOTION":14.9971157,"ECCENTRICITY":0.00030889,"INCLINATION":97.4356,"RA_OF_ASC_NODE":130.2585,"ARG_OF_PERICENTER":282.6756,"MEAN_ANOMALY":77.4123,"EPHEMERIS_TYPE":0,"CLASSIFICATION_TYPE":"U","NORAD_CAT_ID":43783,"ELEMENT_SET_NO":999,"REV_AT_EPOCH":40034,"BSTAR":0.00021288381,"MEAN_MOTION_DOT":2.572e-5,"MEAN_MOTION_DDOT":0},{"OBJECT_NAME":"SAUDISAT 5A","OBJECT_ID":"2018-102A","EPOCH":"2026-04-05T06:16:49.147680","MEAN_MOTION":15.27317906,"ECCENTRICITY":0.00106774,"INCLINATION":97.3131,"RA_OF_ASC_NODE":158.2629,"ARG_OF_PERICENTER":40.9969,"MEAN_ANOMALY":319.2071,"EPHEMERIS_TYPE":0,"CLASSIFICATION_TYPE":"U","NORAD_CAT_ID":43831,"ELEMENT_SET_NO":999,"REV_AT_EPOCH":40454,"BSTAR":0.0003166876,"MEAN_MOTION_DOT":8.416e-5,"MEAN_MOTION_DDOT":0},{"OBJECT_NAME":"SAUDISAT 5B","OBJECT_ID":"2018-102C","EPOCH":"2026-04-05T07:02:57.749280","MEAN_MOTION":15.27611869,"ECCENTRICITY":0.00114341,"INCLINATION":97.3231,"RA_OF_ASC_NODE":161.233,"ARG_OF_PERICENTER":42.5287,"MEAN_ANOMALY":317.6837,"EPHEMERIS_TYPE":0,"CLASSIFICATION_TYPE":"U","NORAD_CAT_ID":43833,"ELEMENT_SET_NO":999,"REV_AT_EPOCH":40466,"BSTAR":0.00027571824,"MEAN_MOTION_DOT":7.384e-5,"MEAN_MOTION_DDOT":0},{"OBJECT_NAME":"GAOFEN-10R","OBJECT_ID":"2019-066A","EPOCH":"2026-04-05T06:47:29.737248","MEAN_MOTION":14.82894761,"ECCENTRICITY":0.00062606,"INCLINATION":98.0442,"RA_OF_ASC_NODE":48.3672,"ARG_OF_PERICENTER":27.5183,"MEAN_ANOMALY":332.636,"EPHEMERIS_TYPE":0,"CLASSIFICATION_TYPE":"U","NORAD_CAT_ID":44622,"ELEMENT_SET_NO":999,"REV_AT_EPOCH":35157,"BSTAR":0.00029075682,"MEAN_MOTION_DOT":2.303e-5,"MEAN_MOTION_DDOT":0},{"OBJECT_NAME":"CARTOSAT-3","OBJECT_ID":"2019-081A","EPOCH":"2026-04-05T05:54:33.378624","MEAN_MOTION":15.19294058,"ECCENTRICITY":0.0012842,"INCLINATION":97.4369,"RA_OF_ASC_NODE":158.2592,"ARG_OF_PERICENTER":52.8129,"MEAN_ANOMALY":307.4276,"EPHEMERIS_TYPE":0,"CLASSIFICATION_TYPE":"U","NORAD_CAT_ID":44804,"ELEMENT_SET_NO":999,"REV_AT_EPOCH":35239,"BSTAR":0.00028029492,"MEAN_MOTION_DOT":5.86e-5,"MEAN_MOTION_DDOT":0},{"OBJECT_NAME":"GAOFEN-12 01","OBJECT_ID":"2019-082A","EPOCH":"2026-04-05T06:51:52.630848","MEAN_MOTION":14.80398612,"ECCENTRICITY":5.71e-5,"INCLINATION":97.8132,"RA_OF_ASC_NODE":103.5858,"ARG_OF_PERICENTER":84.7292,"MEAN_ANOMALY":275.3985,"EPHEMERIS_TYPE":0,"CLASSIFICATION_TYPE":"U","NORAD_CAT_ID":44819,"ELEMENT_SET_NO":999,"REV_AT_EPOCH":34330,"BSTAR":9.5480969e-5,"MEAN_MOTION_DOT":6.78e-6,"MEAN_MOTION_DDOT":0},{"OBJECT_NAME":"CSG-1","OBJECT_ID":"2019-092A","EPOCH":"2026-04-05T06:36:00.209088","MEAN_MOTION":14.82151954,"ECCENTRICITY":0.00012936,"INCLINATION":97.8883,"RA_OF_ASC_NODE":279.9302,"ARG_OF_PERICENTER":83.3448,"MEAN_ANOMALY":276.7912,"EPHEMERIS_TYPE":0,"CLASSIFICATION_TYPE":"U","NORAD_CAT_ID":44873,"ELEMENT_SET_NO":999,"REV_AT_EPOCH":34067,"BSTAR":0.00010748667,"MEAN_MOTION_DOT":8.03e-6,"MEAN_MOTION_DDOT":0},{"OBJECT_NAME":"NEMO-HD","OBJECT_ID":"2020-061F","EPOCH":"2026-04-05T06:38:52.596960","MEAN_MOTION":15.43167878,"ECCENTRICITY":9.534e-5,"INCLINATION":97.1985,"RA_OF_ASC_NODE":158.0199,"ARG_OF_PERICENTER":74.2939,"MEAN_ANOMALY":285.8414,"EPHEMERIS_TYPE":0,"CLASSIFICATION_TYPE":"U","NORAD_CAT_ID":46277,"ELEMENT_SET_NO":999,"REV_AT_EPOCH":31073,"BSTAR":0.00030066522,"MEAN_MOTION_DOT":0.00013247,"MEAN_MOTION_DDOT":0}]
