GAOFEN-1 02             
1 43259U 18031A   26095.24158096 -.00000331  00000+0 -40094-4 0  9992
2 43259  98.0591 157.9487 0002005 221.7336 138.3721 14.76453882431932
GAOFEN-1 03             
1 43260U 18031B   26095.28749451  .00001220  00000+0  18267-3 0  9991
2 43260  98.0580 157.8608 0001600 328.1706  31.9407 14.76474673431939
GAOFEN-1 04             
1 43262U 18031D   26095.26322334  .00001769  00000+0  26174-3 0  9992
2 43262  98.0592 158.0185 0001225  57.7072 302.4257 14.76440083431927
SENTINEL-3B             
1 43437U 18039A   26095.18447337  .00000193  00000+0  97751-4 0  9996
2 43437  98.6296 163.7478 0001546 111.7717 248.3628 14.26736433413718
GAOFEN-5 01             
1 43461U 18043A   26095.17093932  .00000634  00000+0  14068-3 0  9994
2 43461  98.4514  65.2528 0001117 351.0603   9.0576 14.60553255421030
GAOFEN-6                
1 43484U 18048A   26095.29162010  .00001867  00000+0  27375-3 0  9995
2 43484  97.7820 160.6262 0013429  57.2853 302.9650 14.76649322422636
GAOFEN-11 01            
1 43585U 18063A   26095.29113208  .00024743  00000+0  39443-3 0  9996
2 43585  97.1353 162.4667 0002842 223.4762 136.6268 15.53226205429029
ICESAT-2                
1 43613U 18070A   26095.21137283  .00004452  00000+0  16168-3 0  9991
2 43613  91.9999 271.3046 0004201  72.4151 287.7557 15.28258663421313
HYSIS                   
1 43719U 18096A   26095.26290954  .00002615  00000+0  36411-3 0  9998
2 43719  97.9887 162.5638 0001469  66.2622 293.8743 14.78631920396644
KAZSTSAT                
1 43783U 18099AB  26095.04150971  .00002572  00000+0  21288-3 0  9990
2 43783  97.4356 130.2585 0003088 282.6756  77.4123 14.99711570400349
SAUDISAT 5A             
1 43831U 18102A   26095.26167995  .00008416  00000+0  31669-3 0  9994
2 43831  97.3131 158.2629 0010677  40.9969 319.2071 15.27317906404547
SAUDISAT 5B             
1 43833U 18102C   26095.29372395  .00007384  00000+0  27572-3 0  9992
2 43833  97.3231 161.2330 0011434  42.5287 317.6837 15.27611869404666
GAOFEN-10R              
1 44622U 19066A   26095.28298307  .00002303  00000+0  29076-3 0  9995
2 44622  98.0442  48.3672 0006260  27.5183 332.6360 14.82894761351571
CARTOSAT-3              
1 44804U 19081A   26095.24621966  .00005860  00000+0  28029-3 0  9999
2 44804  97.4369 158.2592 0012842  52.8129 307.4276 15.19294058352391
GAOFEN-12 01            
1 44819U 19082A   26095.28602582  .00000678  00000+0  95481-4 0  9992
2 44819  97.8132 103.5858 0000571  84.7292 275.3985 14.80398612343307
CSG-1                   
1 44873U 19092A   26095.27500242  .00000803  00000+0  10749-3 0  9995
2 44873  97.8883 279.9302 0001293  83.3448 276.7912 14.82151954340672
NEMO-HD                 
1 46277U 20061F   26095.27699765  .00013247  00000+0  30067-3 0  9993
2 46277  97.1985 158.0199 0000953  74.2939 285.8414 15.43167878310737
